STARLINK-33718          
1 63476U 25070S   26005.09333987  .00031247  00000+0  11395-2 0  9992
2 63476  42.9990 258.6586 0000749   1.1819 358.9034 15.27599518 43259
STARLINK-33630          
1 63477U 25070T   26004.12715035  .00034355  00000+0  12501-2 0  9997
2 63477  42.9968 260.8281 0001458 268.5668  91.5017 15.27634451 43146
STARLINK-33695          
1 63478U 25070U   26005.09510022  .00030305  00000+0  11059-2 0  9992
2 63478  42.9966 255.1946 0001700 281.8310  78.2351 15.27590295 43298
STARLINK-33713          
1 63479U 25070V   26004.96818318  .00044604  00000+0  16202-2 0  9999
2 63479  43.0004 255.9578 0002078 264.6795  95.3819 15.27588642 43278
STARLINK-33721          
1 63480U 25070W   26004.97077012  .00029600  00000+0  10813-2 0  9991
2 63480  42.9976 255.9755 0000762 256.2032 103.8735 15.27565857 43277
STARLINK-33639          
1 63481U 25070X   26004.40154427  .00036376  00000+0  13251-2 0  9993
2 63481  43.0015 259.4407 0000896 286.7460  73.3293 15.27575383 43183
STARLINK-33688          
1 63483U 25070Z   26004.14721850  .00020931  00000+0  76732-3 0  9990
2 63483  43.0004 264.4414 0001512 285.4854  74.5831 15.27607285 43106
STARLINK-33700          
1 63484U 25070AA  26004.97797909  .00037067  00000+0  13489-2 0  9997
2 63484  42.9946 259.4974 0000656 277.1788  82.8989 15.27600762 43230
STARLINK-33687          
1 63485U 25070AB  26005.09718927  .00029065  00000+0  10603-2 0  9999
2 63485  43.0003 258.6323 0001748 280.8206  79.2449 15.27617232 43258
STARLINK-33716          
1 63486U 25070AC  26005.10232982  .00041895  00000+0  15226-2 0  9995
2 63486  43.0010 258.7283 0001851 272.5593  87.5047 15.27596558 43258
STARLINK-33754          
1 63487U 25070AD  26005.12289034  .00038901  00000+0  14149-2 0  9995
2 63487  42.9995 258.8555 0000677 236.9841 123.0946 15.27598807 43250
STARLINK-33828          
1 63493U 25071A   26005.23023737  .00028913  00000+0  98390-3 0  9994
2 63493  53.1602  76.8536 0001298  93.8519 266.2630 15.30220387 43007
STARLINK-33819          
1 63494U 25071B   26005.16811058  .00010935  00000+0  38123-3 0  9991
2 63494  53.1600  77.1675 0001500  79.5297 280.5873 15.30161205 42992
STARLINK-33845          
1 63495U 25071C   26005.21387735  .00051214  00000+0  17284-2 0  9997
2 63495  53.1573  74.6137 0001172  99.4170 260.6963 15.30217984 43034
STARLINK-33829          
1 63496U 25071D   26004.90312001  .00020016  00000+0  68583-3 0  9992
2 63496  53.1591  76.2261 0001708  94.0192 266.1004 15.30213226 42942
STARLINK-33815          
1 63497U 25071E   26005.18233583  .00037091  00000+0  12570-2 0  9996
2 63497  53.1599  75.1257 0002009  91.0784 269.0447 15.30229874 43044
