[{"OBJECT_NAME":"STARLINK-33718","OBJECT_ID":"2025-070S","EPOCH":"2026-01-05T02:14:24.564768","MEAN_MOTION":15.27599518,"ECCENTRICITY":7.494e-5,"INCLINATION":42.999,"RA_OF_ASC_NODE":258.6586,"ARG_OF_PERICENTER":1.1819,"MEAN_ANOMALY":358.9034,"EPHEMERIS_TYPE":0,"CLASSIFICATION_TYPE":"U","NORAD_CAT_ID":63476,"ELEMENT_SET_NO":999,"REV_AT_EPOCH":4325,"BSTAR":0.0011395268,"MEAN_MOTION_DOT":0.00031247,"MEAN_MOTION_DDOT":0},{"OBJECT_NAME":"STARLINK-33630","OBJECT_ID":"2025-070T","EPOCH":"2026-01-04T03:03:05.790240","MEAN_MOTION":15.27634451,"ECCENTRICITY":0.00014587,"INCLINATION":42.9968,"RA_OF_ASC_NODE":260.8281,"ARG_OF_PERICENTER":268.5668,"MEAN_ANOMALY":91.5017,"EPHEMERIS_TYPE":0,"CLASSIFICATION_TYPE":"U","NORAD_CAT_ID":63477,"ELEMENT_SET_NO":999,"REV_AT_EPOCH":4314,"BSTAR":0.0012500603,"MEAN_MOTION_DOT":0.00034355,"MEAN_MOTION_DDOT":0},{"OBJECT_NAME":"STARLINK-33695","OBJECT_ID":"2025-070U","EPOCH":"2026-01-05T02:16:56.659008","MEAN_MOTION":15.27590295,"ECCENTRICITY":0.00017009,"INCLINATION":42.9966,"RA_OF_ASC_NODE":255.1946,"ARG_OF_PERICENTER":281.831,"MEAN_ANOMALY":78.2351,"EPHEMERIS_TYPE":0,"CLASSIFICATION_TYPE":"U","NORAD_CAT_ID":63478,"ELEMENT_SET_NO":999,"REV_AT_EPOCH":4329,"BSTAR":0.0011058938,"MEAN_MOTION_DOT":0.00030305,"MEAN_MOTION_DDOT":0},{"OBJECT_NAME":"STARLINK-33713","OBJECT_ID":"2025-070V","EPOCH":"2026-01-04T23:14:11.026752","MEAN_MOTION":15.27588642,"ECCENTRICITY":0.0002078,"INCLINATION":43.0004,"RA_OF_ASC_NODE":255.9578,"ARG_OF_PERICENTER":264.6795,"MEAN_ANOMALY":95.3819,"EPHEMERIS_TYPE":0,"CLASSIFICATION_TYPE":"U","NORAD_CAT_ID":63479,"ELEMENT_SET_NO":999,"REV_AT_EPOCH":4327,"BSTAR":0.0016202,"MEAN_MOTION_DOT":0.00044604,"MEAN_MOTION_DDOT":0},{"OBJECT_NAME":"STARLINK-33721","OBJECT_ID":"2025-070W","EPOCH":"2026-01-04T23:17:54.538368","MEAN_MOTION":15.27565857,"ECCENTRICITY":7.62e-5,"INCLINATION":42.9976,"RA_OF_ASC_NODE":255.9755,"ARG_OF_PERICENTER":256.2032,"MEAN_ANOMALY":103.8735,"EPHEMERIS_TYPE":0,"CLASSIFICATION_TYPE":"U","NORAD_CAT_ID":63480,"ELEMENT_SET_NO":999,"REV_AT_EPOCH":4327,"BSTAR":0.0010813,"MEAN_MOTION_DOT":0.000296,"MEAN_MOTION_DDOT":0},{"OBJECT_NAME":"STARLINK-33639","OBJECT_ID":"2025-070X","EPOCH":"2026-01-04T09:38:13.424928","MEAN_MOTION":15.27575383,"ECCENTRICITY":8.964e-5,"INCLINATION":43.0015,"RA_OF_ASC_NODE":259.4407,"ARG_OF_PERICENTER":286.746,"MEAN_ANOMALY":73.3293,"EPHEMERIS_TYPE":0,"CLASSIFICATION_TYPE":"U","NORAD_CAT_ID":63481,"ELEMENT_SET_NO":999,"REV_AT_EPOCH":4318,"BSTAR":0.0013250788,"MEAN_MOTION_DOT":0.00036376,"MEAN_MOTION_DDOT":0},{"OBJECT_NAME":"STARLINK-33688","OBJECT_ID":"2025-070Z","EPOCH":"2026-01-04T03:31:59.678400","MEAN_MOTION":15.27607285,"ECCENTRICITY":0.00015122,"INCLINATION":43.0004,"RA_OF_ASC_NODE":264.4414,"ARG_OF_PERICENTER":285.4854,"MEAN_ANOMALY":74.5831,"EPHEMERIS_TYPE":0,"CLASSIFICATION_TYPE":"U","NORAD_CAT_ID":63483,"ELEMENT_SET_NO":999,"REV_AT_EPOCH":4310,"BSTAR":0.00076732333,"MEAN_MOTION_DOT":0.00020931,"MEAN_MOTION_DDOT":0},{"OBJECT_NAME":"STARLINK-33700","OBJECT_ID":"2025-070AA","EPOCH":"2026-01-04T23:28:17.393376","MEAN_MOTION":15.27600762,"ECCENTRICITY":6.56e-5,"INCLINATION":42.9946,"RA_OF_ASC_NODE":259.4974,"ARG_OF_PERICENTER":277.1788,"MEAN_ANOMALY":82.8989,"EPHEMERIS_TYPE":0,"CLASSIFICATION_TYPE":"U","NORAD_CAT_ID":63484,"ELEMENT_SET_NO":999,"REV_AT_EPOCH":4323,"BSTAR":0.0013489,"MEAN_MOTION_DOT":0.00037067,"MEAN_MOTION_DDOT":0},{"OBJECT_NAME":"STARLINK-33687","OBJECT_ID":"2025-070AB","EPOCH":"2026-01-05T02:19:57.152928","MEAN_MOTION":15.27617232,"ECCENTRICITY":0.00017483,"INCLINATION":43.0003,"RA_OF_ASC_NODE":258.6323,"ARG_OF_PERICENTER":280.8206,"MEAN_ANOMALY":79.2449,"EPHEMERIS_TYPE":0,"CLASSIFICATION_TYPE":"U","NORAD_CAT_ID":63485,"ELEMENT_SET_NO":999,"REV_AT_EPOCH":4325,"BSTAR":0.0010603405,"MEAN_MOTION_DOT":0.00029065,"MEAN_MOTION_DDOT":0},{"OBJECT_NAME":"STARLINK-33716","OBJECT_ID":"2025-070AC","EPOCH":"2026-01-05T02:27:21.296448","MEAN_MOTION":15.27596558,"ECCENTRICITY":0.00018515,"INCLINATION":43.001,"RA_OF_ASC_NODE":258.7283,"ARG_OF_PERICENTER":272.5593,"MEAN_ANOMALY":87.5047,"EPHEMERIS_TYPE":0,"CLASSIFICATION_TYPE":"U","NORAD_CAT_ID":63486,"ELEMENT_SET_NO":999,"REV_AT_EPOCH":4325,"BSTAR":0.0015225508,"MEAN_MOTION_DOT":0.00041895,"MEAN_MOTION_DDOT":0},{"OBJECT_NAME":"STARLINK-33754","OBJECT_ID":"2025-070AD","EPOCH":"2026-01-05T02:56:57.725376","MEAN_MOTION":15.27598807,"ECCENTRICITY":6.777e-5,"INCLINATION":42.9995,"RA_OF_ASC_NODE":258.8555,"ARG_OF_PERICENTER":236.9841,"MEAN_ANOMALY":123.0946,"EPHEMERIS_TYPE":0,"CLASSIFICATION_TYPE":"U","NORAD_CAT_ID":63487,"ELEMENT_SET_NO":999,"REV_AT_EPOCH":4325,"BSTAR":0.0014149204,"MEAN_MOTION_DOT":0.00038901,"MEAN_MOTION_DDOT":0},{"OBJECT_NAME":"STARLINK-33828","OBJECT_ID":"2025-071A","EPOCH":"2026-01-05T05:31:32.508768","MEAN_MOTION":15.30220387,"ECCENTRICITY":0.00012988,"INCLINATION":53.1602,"RA_OF_ASC_NODE":76.8536,"ARG_OF_PERICENTER":93.8519,"MEAN_ANOMALY":266.263,"EPHEMERIS_TYPE":0,"CLASSIFICATION_TYPE":"U","NORAD_CAT_ID":63493,"ELEMENT_SET_NO":999,"REV_AT_EPOCH":4300,"BSTAR":0.00098389611,"MEAN_MOTION_DOT":0.00028913,"MEAN_MOTION_DDOT":0},{"OBJECT_NAME":"STARLINK-33819","OBJECT_ID":"2025-071B","EPOCH":"2026-01-05T04:02:04.754112","MEAN_MOTION":15.30161205,"ECCENTRICITY":0.00015003,"INCLINATION":53.16,"RA_OF_ASC_NODE":77.1675,"ARG_OF_PERICENTER":79.5297,"MEAN_ANOMALY":280.5873,"EPHEMERIS_TYPE":0,"CLASSIFICATION_TYPE":"U","NORAD_CAT_ID":63494,"ELEMENT_SET_NO":999,"REV_AT_EPOCH":4299,"BSTAR":0.00038122816,"MEAN_MOTION_DOT":0.00010935,"MEAN_MOTION_DDOT":0},{"OBJECT_NAME":"STARLINK-33845","OBJECT_ID":"2025-071C","EPOCH":"2026-01-05T05:07:59.003040","MEAN_MOTION":15.30217984,"ECCENTRICITY":0.00011725,"INCLINATION":53.1573,"RA_OF_ASC_NODE":74.6137,"ARG_OF_PERICENTER":99.417,"MEAN_ANOMALY":260.6963,"EPHEMERIS_TYPE":0,"CLASSIFICATION_TYPE":"U","NORAD_CAT_ID":63495,"ELEMENT_SET_NO":999,"REV_AT_EPOCH":4303,"BSTAR":0.0017284457,"MEAN_MOTION_DOT":0.00051214,"MEAN_MOTION_DDOT":0},{"OBJECT_NAME":"STARLINK-33829","OBJECT_ID":"2025-071D","EPOCH":"2026-01-04T21:40:29.568864","MEAN_MOTION":15.30213226,"ECCENTRICITY":0.0001708,"INCLINATION":53.1591,"RA_OF_ASC_NODE":76.2261,"ARG_OF_PERICENTER":94.0192,"MEAN_ANOMALY":266.1004,"EPHEMERIS_TYPE":0,"CLASSIFICATION_TYPE":"U","NORAD_CAT_ID":63496,"ELEMENT_SET_NO":999,"REV_AT_EPOCH":4294,"BSTAR":0.00068583,"MEAN_MOTION_DOT":0.00020016,"MEAN_MOTION_DDOT":0},{"OBJECT_NAME":"STARLINK-33815","OBJECT_ID":"2025-071E","EPOCH":"2026-01-05T04:22:33.815712","MEAN_MOTION":15.30229874,"ECCENTRICITY":0.0002009,"INCLINATION":53.1599,"RA_OF_ASC_NODE":75.1257,"ARG_OF_PERICENTER":91.0784,"MEAN_ANOMALY":269.0447,"EPHEMERIS_TYPE":0,"CLASSIFICATION_TYPE":"U","NORAD_CAT_ID":63497,"ELEMENT_SET_NO":999,"REV_AT_EPOCH":4304,"BSTAR":0.0012569994,"MEAN_MOTION_DOT":0.00037091,"MEAN_MOTION_DDOT":0}]
